OBJECT_NAME,OBJECT_ID,EPOCH,MEAN_MOTION,ECCENTRICITY,INCLINATION,RA_OF_ASC_NODE,ARG_OF_PERICENTER,MEAN_ANOMALY,EPHEMERIS_TYPE,CLASSIFICATION_TYPE,NORAD_CAT_ID,ELEMENT_SET_NO,REV_AT_EPOCH,BSTAR,MEAN_MOTION_DOT,MEAN_MOTION_DDOT
H-2A R/B,2006-002B,2026-07-13T11:35:55.495680,15.18428233,.00507002,98.2585,352.7015,171.8030,188.4042,0,U,28932,999,11351,.21756853E-3,.4546E-4,0
RESURS-DK 1,2006-021A,2026-07-13T14:35:27.226464,15.13315847,.00070137,69.9309,271.1556,272.7171,87.3192,0,U,29228,999,10657,.59600844E-4,.955E-5,0
CZ-4B R/B,2006-046C,2026-07-13T14:55:59.102976,15.17973709,.00324252,97.5441,239.1481,187.5675,172.5074,0,U,29507,999,7914,.11894346E-3,.2377E-4,0
CZ-2C R/B,2007-010B,2026-07-13T06:24:05.224896,14.20281507,.0057804,98.4117,301.3447,289.4901,70.0038,0,U,31114,999,99754,.31042E-4,.26E-6,0
COSMO-SKYMED 1,2007-023A,2026-07-13T14:26:01.783392,14.97214615,.00012891,97.8844,26.6807,103.7292,256.4073,0,U,31598,999,3374,.12010832E-3,.1329E-4,0
COSMOS 2428,2007-029A,2026-07-13T14:54:45.011520,14.12933472,.00072,70.9381,298.9757,84.3076,275.8866,0,U,31792,999,98188,.13627928E-3,.206E-5,0
SL-16 R/B,2007-029B,2026-07-13T15:08:23.527104,14.14851164,.00020108,70.9746,267.6415,256.2334,210.5648,0,U,31793,999,98318,.8040137E-4,.107E-5,0
KORONAS-FOTON,2009-003A,2026-07-13T08:34:06.248928,15.46270004,.00123192,82.4302,144.9497,67.7642,292.4913,0,U,33504,999,96514,.16522923E-3,.8194E-4,0
CZ-2C R/B,2011-030B,2026-07-13T11:00:24.527808,14.81530536,.00508896,97.8669,149.3738,301.9687,169.3473,0,U,37731,999,80871,.74062666E-4,.538E-5,0
H-2A R/B,2012-025E,2026-07-13T12:19:38.193600,14.95835223,.00423993,98.4848,171.8343,260.8046,98.8375,0,U,38341,999,76702,.55848174E-4,.563E-5,0
SHIJIAN-16 (SJ-16),2013-057A,2026-07-13T15:32:37.768704,14.92666075,.00158412,74.9738,306.5650,168.5188,191.6365,0,U,39358,999,69029,.20894007E-4,.186E-5,0
SL-4 R/B,2014-021B,2026-07-12T22:02:48.743808,15.42452959,.00897962,51.6063,84.6655,200.0922,159.6520,0,U,39679,999,67558,.14899335E-3,.7119E-4,0
ALOS-2,2014-029A,2026-07-13T14:00:24.399936,14.79473156,.00016214,97.9230,291.3702,93.0159,267.1238,0,U,39766,999,65548,.15801486E-3,.1129E-4,0
YAOGAN-29,2015-069A,2026-07-13T15:00:09.556704,14.83104773,.00008815,98.0023,223.2981,12.4859,347.6376,0,U,41038,999,57454,.21256063E-4,.119E-5,0
ASTRO-H (HITOMI),2016-012A,2026-07-13T11:10:10.204032,15.10628471,.00096072,30.9985,264.4618,157.9025,202.2028,0,U,41337,999,57126,.79367893E-4,.1442E-4,0
HXMT (HUIYAN),2017-034A,2026-07-13T15:23:40.879104,15.18680409,.00324594,43.0153,35.7141,311.2272,48.5781,0,U,42758,999,50168,.12342211E-3,.2393E-4,0
SAOCOM 1A,2018-076A,2026-07-13T14:24:14.985216,14.82145253,.00014172,97.8884,20.9651,85.9438,274.1937,0,U,43641,999,42001,-.200358E-5,-.68E-6,0
H-2A R/B,2018-084L,2026-07-13T14:32:27.618144,15.46160934,.00206705,98.8538,79.2864,306.4395,53.4944,0,U,43682,999,42520,.2574165E-3,.12611E-3,0
SAOCOM 1B,2020-059A,2026-07-13T15:09:11.759904,14.82158907,.00015781,97.8888,20.0922,81.5328,278.6064,0,U,46265,999,31740,.48085203E-4,.331E-5,0
CSS (TIANHE),2021-035A,2026-07-13T13:09:41.370336,15.58055023,.00023088,41.4687,161.8154,295.5855,64.4744,0,U,48274,999,29728,.14285014E-4,.774E-5,0
COSMOS 2550,2021-056A,2026-07-13T16:39:44.222112,15.33820895,.0008386,67.1415,19.7235,269.4990,90.5204,0,U,48865,999,28278,.22411E-4,.545E-5,0
CZ-2C R/B,2022-058K,2026-07-12T22:42:20.433312,15.63734509,.00304657,50.1858,29.2996,13.2357,346.9410,0,U,52794,999,22967,.36102805E-3,.34864E-3,0
CZ-2C R/B,2022-132E,2026-07-13T11:40:38.186976,15.74817111,.0009734,97.2888,202.7479,350.2513,9.8561,0,U,54039,999,21008,.3186056E-3,.47023E-3,0
GSLV R/B,2022-138AN,2026-07-13T07:34:30.086400,14.97377522,.00237188,87.3818,124.2105,58.3676,301.9865,0,U,54149,999,20272,.10948104E-3,.1308E-4,0
XRISM,2023-137A,2026-07-13T07:44:45.047904,15.12661465,.00078585,31.0007,190.2776,227.7814,132.2158,0,U,57800,999,15682,.10940137E-3,.206E-4,0
ACS3,2024-077B,2026-07-11T17:46:17.954112,13.95349463,.01210111,97.1723,106.0854,40.7850,320.2298,0,U,59588,999,11146,.713075E-2,.10248E-3,0
SPACEMOBILE-003,2024-163A,2026-07-12T02:59:11.082912,15.20757146,.00039532,52.9645,194.7701,176.8899,183.2120,0,U,61045,999,10156,.15017438E-4,.8E-7,0
SPACEMOBILE-005,2024-163B,2026-07-13T02:14:56.738400,15.20746160,.00085164,52.9757,190.2542,188.4778,171.6074,0,U,61046,999,10170,.29081362E-4,.32E-5,0
SPACEMOBILE-001,2024-163C,2026-07-11T10:46:43.885920,15.20792937,.00074751,52.9736,197.5273,183.3179,176.7767,0,U,61047,999,10145,.28550562E-4,.309E-5,0
SPACEMOBILE-002,2024-163D,2026-07-13T01:49:27.471360,15.20818302,.00063791,52.9787,190.0866,191.8159,168.2686,0,U,61048,999,10170,.61596906E-3,.13464E-3,0
